TEMPEST-D               
1 43547U 98067NV  20120.02837335  .00005131  00000-0  63691-4 0  9998
2 43547  51.6361 201.2935 0004403 231.0343 129.0259 15.61946346101797
RAINCUBE                
1 43548U 98067NW  20119.77775358  .00026422  00000-0  20220-3 0  9991
2 43548  51.6322 184.4826 0003657 285.9413  74.1182 15.71941099102441
HALOSAT                 
1 43549U 98067NX  20120.45788912  .00026409  00000-0  20593-3 0  9997
2 43549  51.6344 181.5893 0003225 293.5797  66.4862 15.71495063102106
ENDUROSAT ONE           
1 43551U 98067NZ  20120.52024292  .00039343  00000-0  23533-3 0  9990
2 43551  51.6340 172.1618 0004108 315.4932  44.5738 15.77433323102647
EQUISAT                 
1 43552U 98067PA  20120.44401473  .00024795  00000-0  18917-3 0  9997
2 43552  51.6344 180.0354 0004363 293.4872  66.5667 15.72051616102492
AEROCUBE 12A            
1 43556U 18046C   20119.78735965  .00001108  00000-0  50382-4 0  9997
2 43556  51.6431 344.1769 0008904 116.1262 244.0635 15.29663326 99778
AEROCUBE 12B            
1 43557U 18046D   20119.77390232  .00001612  00000-0  68181-4 0  9997
2 43557  51.6433 344.8272 0008923 116.2469 243.9429 15.29399592 99712
UITMSAT-1               
1 43589U 98067PD  20119.59202917  .00035053  00000-0  24318-3 0  9994
2 43589  51.6303 183.1766 0004460 307.2132  52.8459 15.74089778 98111
MAYA-1                  
1 43590U 98067PE  20119.45796480  .00037669  00000-0  26089-3 0  9996
2 43590  51.6304 183.7917 0004593 306.6201  53.4375 15.74091883 98029
BHUTAN-1                
1 43591U 98067PF  20119.56164793  .00033823  00000-0  23370-3 0  9993
2 43591  51.6316 183.0417 0004616 306.8315  53.2260 15.74201380 98043
SIRIUSSAT-1             
1 43595U 98067PG  20120.49477248  .00025748  00000-0  19528-3 0  9990
2 43595  51.6315 182.4893 0001951 303.9079  56.1734 15.72174683 97311
SIRIUSSAT-2             
1 43596U 98067PH  20120.48971740  .00026306  00000-0  20032-3 0  9999
2 43596  51.6321 183.2748 0002065 290.4811  69.5965 15.72065931 97306
TANUSHA-3               
1 43597U 98067PJ  20120.42884205  .00055173  00000-0  29332-3 0  9999
2 43597  51.6292 173.6650 0003699 342.5635  17.5239 15.79910704 97420
SURFSAT                 
1 43614U 18070B   20119.79575900  .00002793  00000-0  72402-4 0  9999
2 43614  93.0209 134.0697 0016205 159.1384 201.0535 15.38959897 90849
CP7 (DAVE)              
1 43615U 18070C   20119.75766465  .00002651  00000-0  69033-4 0  9993
2 43615  93.0212 134.0472 0016360 158.9211 201.2720 15.38826686 90839
ELFIN-B                 
1 43616U 18070D   20119.77492593  .00003559  00000-0  88883-4 0  9996
2 43616  93.0175 133.9823 0016786 160.7969 199.3922 15.40068943 90871
ELFIN-A                 
1 43617U 18070E   20120.46357769  .00004018  00000-0  99789-4 0  9998
2 43617  93.0229 134.7382 0016427 154.9276 205.2780 15.40239941 90988
CUBEBEL-1 (BSUSAT-1)    
1 43666U 18083E   20120.54202418  .00001078  00000-0  55992-4 0  9996
2 43666  97.4923 147.4817 0015185 164.2742 348.5912 15.18169735 83198
DEBRISSAT-2             
1 43680U 98067PR  20120.37709008  .00201767  26857-4  52774-3 0  9993
2 43680  51.6287 165.0223 0008065   7.2977 352.8147 15.94446488106260
CICERO 10               
1 43690U 18088A   20120.45341775  .00001121  00000-0  49782-4 0  9997
2 43690  85.0347 110.6092 0016817 124.6562 235.6267 15.20163106 81295
IRVINE01                
1 43693U 18088D   20120.00961451  .00002590  00000-0  10895-3 0  9993
2 43693  85.0322 109.7391 0020294 110.4337 249.9087 15.22664650 81323
PROXIMA I               
1 43694U 18088E   20120.43572005  .00001035  00000-0  43393-4 0  9997
2 43694  85.0290 109.2752 0021613 102.2311 258.1353 15.21891269 81382
PROXIMA II              
1 43696U 18088G   20120.03950675  .00001037  00000-0  43497-4 0  9995
2 43696  85.0291 109.5405 0021647 103.4593 256.9063 15.21893221 81323
FACSAT-1                
1 43721U 18096C   20120.46190295  .00001369  00000-0  54156-4 0  9996
2 43721  97.4227 194.2984 0016071 298.2972  61.6645 15.27100381 78912
CENTAURI-2              
1 43722U 18096D   20120.11094091  .00001890  00000-0  72620-4 0  9991
2 43722  97.4237 194.1791 0016066 299.5087  60.4549 15.27587133 78862
INNOSAT-2               
1 43738U 18096V   20120.48108724  .00002845  00000-0  99694-4 0  9998
2 43738  97.4248 196.3158 0021947 305.4155  54.5036 15.30104950 79041
SIRION PATHFINDER-2     
1 43759U 18099B   20120.45956261  .00000038  00000-0  86342-5 0  9997
2 43759  97.7075 192.9480 0013933 352.8866   7.2155 14.95256408 76608
CORVUS-BC 4             
1 43767U 18099K   20119.78010150 -.00000151  00000-0 -86921-5 0  9999
2 43767  97.7060 191.7446 0011681   0.7459 359.3777 14.94702655 76481
MOVE-II                 
1 43780U 18099Y   20120.27562235  .00000891  00000-0  85843-4 0  9996
2 43780  97.7083 192.6847 0013351   6.1941 353.9442 14.95353770 76567
SPACEBEE-7              
1 43816U 18099BL  20120.15778236  .00000707  00000-0  68726-4 0  9990
2 43816  97.7098 192.9302 0012871 351.0940   9.0051 14.95656728 76125
SPACEBEE-5              
1 43817U 18099BM  20120.13050774  .00000967  00000-0  90755-4 0  9994
2 43817  97.7140 193.2738 0012409 350.4495   9.6488 14.96212024 76135
SPACEBEE-6              
1 43818U 18099BN  20120.46175387  .00000496  00000-0  49562-4 0  9996
2 43818  97.7107 193.3453 0012730 348.8222  11.2715 14.95829361 76320
SHIELDS 1               
1 43850U 18104B   20119.67417724  .00000041  00000-0  00000-0 0  9990
2 43850  85.0320 208.2474 0012568 251.2151 108.7743 15.21346585 75907
STF-1                   
1 43852U 18104D   20120.20930856  .00000041  00000-0  00000+0 0  9998
2 43852  85.0356 208.4004 0012312 266.1603  93.8327 15.21192608 75966
ZACUBE-2                
1 43907U 18111AH  20120.48893375  .00000566  00000-0  25750-4 0  9997
2 43907  97.2696  21.7167 0020427 320.5292  39.4457 15.24542746 74559
LUME 1                  
1 43908U 18111AJ  20119.77069220  .00001100  00000-0  46751-4 0  9991
2 43908  97.2697  21.1583 0020261 322.9725  37.0114 15.24950681 74454
AOBA VELOX-IV           
1 43940U 19003J   20120.43755998  .00002155  00000-0  88860-4 0  9995
2 43940  97.2325 173.3883 0025062  40.4295  18.2667 15.24848941 71185
CATSAT-2                
1 44029U 98067PV  20120.45052212  .00017601  00000-0  18893-3 0  9992
2 44029  51.6378 204.1656 0003869 273.1285  86.9267 15.63875370 70852
DELPHINI                
1 44030U 98067PW  20120.43258340  .00017902  00000-0  18621-3 0  9995
2 44030  51.6340 203.2054 0003758 276.3190  83.7377 15.64664900 70833
UNITE                   
1 44031U 98067PX  20120.39542400  .00009490  00000-0  11894-3 0  9992
2 44031  51.6366 209.0120 0002684 261.4439  98.6250 15.60511872 70759
TECHEDSAT 8             
1 44032U 98067PY  20111.15468586  .13178104  12516-4  85387-3 0  9999
2 44032  51.6107 221.1148 0008059 315.3167  44.7209 16.40789031 69743
CATSAT-1                
1 44033U 98067PZ  20120.45034409  .00017466  00000-0  18760-3 0  9997
2 44033  51.6378 204.1702 0003648 273.0808  86.9769 15.63867041 70767
RAAVANA-1               
1 44329U 98067QE  20120.49283127  .00010597  00000-0  15015-3 0  9990
2 44329  51.6385 219.4576 0005507 179.6236 180.4761 15.57063480 49376
UGUISU                  
1 44330U 98067QF  20120.43876573  .00010564  00000-0  15010-3 0  9998
2 44330  51.6382 219.8424 0005515 177.4795 182.6225 15.56991097 49345
NEPALISAT-1             
1 44331U 98067QG  20120.29358212  .00010935  00000-0  15457-3 0  9995
2 44331  51.6384 220.3758 0005556 180.2191 179.8799 15.57088458 49334
SPOOQY-1                
1 44332U 98067QH  20120.48683033  .00010390  00000-0  14763-3 0  9993
2 44332  51.6387 219.4138 0004573 183.3590 176.7372 15.57015927 49327
SPACEBEE-9              
1 44370U 19037F   20119.88695437  .00007919  00000-0  18435-3 0  9991
2 44370  45.0148  32.7526 0013697 255.4340 104.5035 15.42783051 46943
SPACEBEE-8              
1 44371U 19037G   20119.76128567  .00015417  00000-0  31135-3 0  9998
2 44371  45.0156  29.2978 0011027 255.1744 104.7936 15.46352682 46965
IOD-1 GEMS              
1 44385U 98067QK  20119.77075934  .00018000  00000-0  23420-3 0  9992
2 44385  51.6401 222.1742 0001864 128.4887 231.6273 15.58834730 46738
MOVE-IIB                
1 44398U 19038N   20120.45623011  .00001204  00000-0  73097-4 0  9993
2 44398  97.5321  82.3285 0023768 298.6939  61.1903 15.12229403 45173
SONATE                  
1 44400U 19038Q   20119.88394329  .00000462  00000-0  30651-4 0  9993
2 44400  97.5353  81.7823 0023826 298.7742  61.1095 15.11912408 45086
LUCKY-7                 
1 44406U 19038W   20120.37135243  .00000712  00000-0  44855-4 0  9992
2 44406  97.5349  82.3505 0023187 296.8315  63.0545 15.12167660 45158
BEESAT 9                
1 44412U 19038AC  20120.43844107  .00000958  00000-0  59018-4 0  9991
2 44412  97.5341  82.3979 0021351 303.0674  56.8506 15.12228477 44860
JAISAT-1                
1 44419U 19038F   20119.87904144  .00000896  00000-0  54713-4 0  9990
2 44419  97.5343  82.0727 0020278 304.4689  55.4626 15.12710504 45108
SWIATOWID               
1 44426U 98067QL  20120.53599858  .00020709  00000-0  26167-3 0  9990
2 44426  51.6425 218.0206 0002400 128.4958 350.0528 15.59506587 46876
KRAKSAT                 
1 44427U 98067QM  20120.51153664  .00007596  00000-0  11663-3 0  9994
2 44427  51.6404 221.8638 0003337 127.3125 232.8170 15.55351194 46866
VCC A                   
1 44428U 98067QN  20119.69572096  .00011599  00000-0  16744-3 0  9999
2 44428  51.6402 224.6692 0002313 146.6675 213.4463 15.56453506 46752
ENTRYSAT                
1 44429U 98067QP  20119.69400998  .00014133  00000-0  19649-3 0  9995
2 44429  51.6386 223.8893 0001932 135.2630 224.8518 15.57265457 46764
VCC C                   
1 44430U 98067QQ  20119.70130292  .00017411  00000-0  23203-3 0  9999
2 44430  51.6385 223.1987 0001686 153.1530 206.9550 15.58219693 45595
